NOAA 2 (ITOS-D)
1 06235U 72082A   25317.33490623 -.00000016  00000-0  19303-3 0  9990
2 06235 102.0214 328.4510 0003937 220.1701 151.4837 12.53207188427915
SOLRAD-7B
1  1291U 65016D   25317.49332324  .00000117  00000-0  12548-3 0  9991
2  1291  70.0794 334.8247 0019112  37.6746 322.5694 13.94939929 86621
OSCAR-7 (AO-7)
1  7530U 74089B   25317.47308957 -.00000022  00000-0  15153-3 0  9997
2  7530 101.9978 323.4317 0012178 181.8912 346.9419 12.53693307333480
UOSAT-2 (UO-11)
1 14781U 84021B   25317.85070210  .00004900  00000-0  51343-3 0  9999
2 14781  97.7768 281.3379 0007895 164.1823 195.9643 14.90002355225054
FLTSATCOM-7 (USA-20)
1 17181U 86096A   25317.64317950  .00000032  00000-0  00000-0 0  9995
2 17181  12.8772 341.4352 0042153 320.7972 215.3923  0.98926755149835
FLTSATCOM-8 (USA-46)
1 20253U 89077A   25316.97982866 -.00000373  00000-0  00000-0 0  9999
2 20253  12.4825 352.4540 0006320 256.7961 281.3041  1.00262872258390
OSCAR 16 (PACSAT)
1 20439U 90005D   25317.33711997  .00000404  00000-0  16188-3 0  9995
2 20439  98.8784 342.6852 0011283 140.7518 240.6309 14.33843268871007
LUSAT (LO-19)
1 20442U 90005G   25317.86967514  .00000465  00000-0  18315-3 0  9996
2 20442  98.8980 328.6156 0012553 115.5730 244.6752 14.34027751871533
UFO 2 (USA 95)
1 22787U 93056A   25317.24604508  .00000122  00000-0  00000+0 0  9990
2 22787  11.8209   4.7131 0006060 250.5668 274.6258  1.00275439116383
EYESAT-1 (AO-27)
1 22825U 93061C   25317.13965494  .00000364  00000-0  15567-3 0  9997
2 22825  98.7187  19.3310 0008685  21.7279 338.4270 14.30860816676107
ITAMSAT (IO-26) 
1 22826U 93061D   25317.11302436  .00000382  00000-0  16118-3 0  9990
2 22826  98.7137  19.2009 0008884   5.5097 354.6182 14.31280001676404
UFO 3 (USA 104)
1 23132U 94035A   25317.88170028 -.00000059  00000-0  00000-0 0  9999
2 23132  12.2719   6.9912 0006537 241.3986 118.5653  1.00256475129535
RADIO ROSTO (RS-15)
1 23439U 94085A   25317.95621625 -.00000010  00000-0  93211-3 0  9992
2 23439  64.8169 291.2989 0148682  43.9566 317.3073 11.27582178271634
UFO 4 (USA 108)
1 23467U 95003A   25317.41721273 -.00000023  00000-0  00000+0 0  9999
2 23467   9.6972  13.9245 0004323 213.3695 148.0834  1.00274751112797
UFO 7 (USA 127)
1 23967U 96042A   25317.69814931 -.00000192  00000-0  00000-0 0  9990
2 23967  10.9086  18.2135 0005520 146.6345 116.9230  1.00266205107321
JAS-2 (FO-29)
1 24278U 96046B   25317.49457953  .00000053  00000-0  92873-4 0  9993
2 24278  98.5485 190.5507 0349013 296.0256  60.5336 13.53260117443992
UFO 8 (USA 138)
1 25258U 98016A   25317.61136146 -.00000287  00000-0  00000-0 0  9990
2 25258  10.8694  24.0360 0007727 247.6323 141.4738  1.00316479101705
TECHSAT-1B (GO-32)
1 25397U 98043D   25317.48450434  .00000277  00000-0  13977-3 0  9996
2 25397  98.9897 300.0250 0002244 104.7082 255.4345 14.24365053420627
ISS (ZARYA)
1 25544U 98067A   25317.90231501  .00020623  00000-0  37295-3 0  9991
2 25544  51.6330 285.2246 0004163  68.1997 291.9434 15.49643762538389
UFO 10 (USA 146)
1 25967U 99063A   25317.02160221 -.00000191  00000-0  00000-0 0  9990
2 25967   9.8244  28.3187 0006757 225.6779 143.1833  1.00273151 95186
PCSAT (NO-44)
1 26931U 01043C   25317.81792917  .00000666  00000-0  27957-3 0  9992
2 26931  67.0507  81.2689 0007250 271.5145  88.5127 14.31831267259611
PROBA-1
1 26958U 01049B   25317.93165464  .00006836  00000-0  45330-3 0  9991
2 26958  97.9598 314.1608 0057602 129.2358 231.4001 15.06237520311201
SAUDISAT-1C (SO-50)
1 27607U 02058C   25317.72760969  .00004902  00000-0  60458-3 0  9992
2 27607  64.5537  75.2534 0070532 301.9567  57.4693 14.82230329232519
CUTE-1 (CO-55)
1 27844U 03031E   25317.43354970  .00000906  00000-0  41234-3 0  9997
2 27844  98.6774 323.7137 0010710  92.1425 268.0980 14.24143224160968
CUBESAT XI-IV (CO-57)
1 27848U 03031J   25317.94820966  .00000804  00000-0  37294-3 0  9998
2 27848  98.6804 324.1064 0010565 106.6771 253.5568 14.23457757160759
MOZHAYETS-4 (RS-22)
1 27939U 03042A   25317.99137641  .00004075  00000-0  64428-3 0  9990
2 27939  98.3370 131.4297 0010473 227.5696 284.4634 14.72852170183865
UFO 11 (USA 174)
1 28117U 03057A   25317.84062707 -.00000105  00000-0  00000-0 0  9993
2 28117   8.7323  34.8247 0004953 203.3618 193.2624  1.00273437 80299
CUBESAT XI-V (CO-58)
1 28895U 05043F   25317.34440000  .00005558  00000-0  89755-3 0  9997
2 28895  98.2708 103.9320 0014668 166.1232 194.0380 14.71725287 69994
CAPE-1
1 31130U 07012P   25317.47728847  .00006034  00000-0  11003-2 0  9993
2 31130  98.4191 281.6623 0085452  25.2579 335.2763 14.64025898986777
CUTE-1.7+APD II (CO-65)
1 32785U 08021C   25317.95044615  .00016271  00000-0  11014-2 0  9994
2 32785  97.8049 290.6470 0010869  46.6613 313.5518 15.06538318952756
SEEDS-II (CO-66)
1 32791U 08021J   25317.43357979  .00038221  00000-0  15789-2 0  9996
2 32791  97.7433 301.6053 0004174  27.1263 333.0191 15.23895616954332
YUBILEINY (RS-30)
1 32953U 08025A   25317.89926346  .00000065  00000-0  39316-3 0  9998
2 32953  82.4992 129.3621 0019844  62.8304 297.4796 12.43170685792943
KKS-1 (KISEKI)
1 33499U 09002H   25317.64897046  .00005951  00000-0  75140-3 0  9991
2 33499  98.1144 231.8279 0006477 270.5133  89.5337 14.82274604904257
SWISSCUBE
1 35932U 09051B   25317.95558054  .00004562  00000-0  92239-3 0  9991
2 35932  98.4132 217.0221 0007122 152.1217 208.0366 14.61836769857700
BEESAT
1 35933U 09051C   25317.24295500  .00002918  00000-0  60245-3 0  9993
2 35933  98.4068 216.3644 0005238 165.4075 194.7277 14.61168776857646
ITUPSAT-1
1 35935U 09051E   25317.66427851  .00003326  00000-0  70373-3 0  9994
2 35935  98.4156 216.1987 0007248 177.6242 182.4994 14.59936671857282
PROBA-2
1 36037U 09059B   25317.47947419  .00000860  00000-0  21160-3 0  9992
2 36037  98.2382 138.8888 0012325 223.4905 136.5320 14.54676628850164
XIWANG-1 (HOPE-1)
1 36122U 09072B   25317.86182966 -.00000018  00000-0  68996-4 0  9998
2 36122 100.3726 270.4448 0007665  10.2021 349.9247 13.16431281764672
EWS-G2 (GOES-15)
1 36411U 10008A   25316.62335794  .00000031  00000-0  00000-0 0  9994
2 36411   0.7366  85.8862 0006464 161.0094  91.3189  1.00277189 57465
TISAT-1
1 36799U 10035E   25317.73163207  .00040806  00000-0  17816-2 0  9993
2 36799  98.0563 242.0290 0001039 351.6218   8.4999 15.22008020834829
HORYU-2
1 38340U 12025D   25317.70242086  .00011468  00000-0  12195-2 0  9995
2 38340  98.1940  77.4935 0008911 160.0070 200.1497 14.89115271716634
AAUSAT-3
1 39087U 13009B   25317.95156608  .00002165  00000-0  70682-3 0  9998
2 39087  98.3647 141.7253 0012148 134.9535 225.2641 14.39540093666205
STRAND-1
1 39090U 13009E   25317.49449350  .00000959  00000-0  33786-3 0  9993
2 39090  98.3831 138.1353 0009180 149.5220 210.6502 14.36968277666085
CUBEBUG-1 (CAPITAN BETO)
1 39153U 13018D   25317.85646215  .00010062  00000-0  91671-3 0  9995
2 39153  98.1400 103.8657 0012585 137.7786 222.4405 14.95297457678862
PROBA-V
1 39159U 13021A   25317.48143826  .00000261  00000-0  13254-3 0  9995
2 39159  98.3367 302.0375 0005121  54.0898 306.0756 14.23536965650426
ZACUBE-1 (TSHEPISOSAT)
1 39417U 13066B   25317.81859906  .00012846  00000-0  10553-2 0  9991
2 39417  97.7988 274.3356 0040866 244.9362 114.7616 14.98652305648443
TRITON-1
1 39427U 13066M   25317.98179977  .00008274  00000-0  10183-2 0  9992
2 39427  97.8294 227.7887 0091246 214.4195 145.1086 14.80269619642233
DELFI-N3XT
1 39428U 13066N   25317.49101159  .00019342  00000-0  18340-2 0  9997
2 39428  97.8308 233.5842 0079064 201.7926 157.9923 14.91230796642430
GOMX-1
1 39430U 13066Q   25317.94318613  .00006227  00000-0  95009-3 0  9991
2 39430  97.6625 166.8698 0131968  48.7890 312.4604 14.68405434638314
HUMSAT-D
1 39433U 13066T   25317.93243980  .00156867  00000-0  25835-2 0  9992
2 39433  97.5046 318.1395 0003189 264.7252  95.3636 15.51759998653313
VELOX-PII
1 39438U 13066Y   25317.79977509  .00011250  00000-0  11026-2 0  9995
2 39438  97.8478 264.5372 0054255 338.0787  21.8110 14.91305951645712
CUBEBUG-2 (LO-74)
1 39440U 13066AA  25317.82902435  .00012575  00000-0  12158-2 0  9996
2 39440  97.8656 261.5550 0061144  22.2435 338.1414 14.91514687644869
FUNCUBE-1 (AO-73)
1 39444U 13066AE  25317.34620633  .00019534  00000-0  13460-2 0  9993
2 39444  97.8021 280.2875 0037870 214.2299 145.6486 15.05293249647145
UWE-3
1 39446U 13066AG  25317.50343385  .00013451  00000-0  12137-2 0  9991
2 39446  97.8431 267.8511 0050351 320.1464  39.6062 14.94670413645330
UNISAT-6
1 40012U 14033C   25317.67023192  .00008686  00000-0  96657-3 0  9990
2 40012  97.7604 109.7967 0047524  59.3279 301.2608 14.86530635614123
DUCHIFAT-1
1 40021U 14033M   25317.32516295  .00068325  00000-0  18238-2 0  9997
2 40021  98.0847 346.1359 0008585 120.9204 239.2884 15.37834023622327
FUNCUBE-3 (EO-79)
1 40025U 14033R   25317.60684750  .00021277  00000-0  11826-2 0  9995
2 40025  98.0961 309.3734 0007703 237.9457 122.1025 15.13699978620367
SMAP
1 40376U 15003A   25317.96817927  .00001525  00000-0  30447-3 0  9990
2 40376  98.1303 323.1042 0001378  91.5920 268.5439 14.63323786576149
LILACSAT-2
1 40908U 15049K   25317.89851561  .00039572  00000-0  87843-3 0  9990
2 40908  97.4955 342.4136 0006982 325.8127  34.2671 15.43585328562457
LAPAN-A2 (IO-86)
1 40931U 15052B   25151.18580175  .00001241  00000-0  78118-4 0  9996
2 40931   6.0006  24.0987 0012733 338.8432  21.1169 14.78805930523159
LQSAT
1 40958U 15057A   25317.98598780  .00002604  00000-0  38110-3 0  9994
2 40958  97.6607 317.2207 0015669 249.5331 110.4198 14.76381328543558
PRATHAM
1 41783U 16059A   25317.43585531  .00002038  00000-0  37133-3 0  9999
2 41783  97.8273 318.9381 0031321 183.1622 176.9390 14.66755414487880
ALSAT-1N
1 41789U 16059G   25317.88433755  .00004116  00000-0  70968-3 0  9996
2 41789  97.8036 325.9123 0026789 153.5312 206.7269 14.68779825488392
CAS-2T & KS-1Q
1 41847U 16066G   25317.80003844  .00003320  00000-0  47356-3 0  9994
2 41847  98.4066  30.8225 0345155  62.7364 300.8541 14.44038095473700
